{
    "links": {
        "self": "http://www.neowsapp.com/rest/v1/neo/3169274?api_key=iIulBulltgU6a56xZRHN4H3l9WmuAYTsLGpBGhQ2"
    },
    "id": "3169274",
    "neo_reference_id": "3169274",
    "name": "(2003 XH10)",
    "designation": "2003 XH10",
    "nasa_jpl_url": "http://ssd.jpl.nasa.gov/sbdb.cgi?sstr=3169274",
    "absolute_magnitude_h": 25.5,
    "estimated_diameter": {
        "kilometers": {
            "estimated_diameter_min": 0.0211132445,
            "estimated_diameter_max": 0.0472106499
        },
        "meters": {
            "estimated_diameter_min": 21.113244479,
            "estimated_diameter_max": 47.2106498806
        },
        "miles": {
            "estimated_diameter_min": 0.0131191578,
            "estimated_diameter_max": 0.0293353287
        },
        "feet": {
            "estimated_diameter_min": 69.2691770164,
            "estimated_diameter_max": 154.8905885541
        }
    },
    "is_potentially_hazardous_asteroid": false,
    "close_approach_data": [
        {
            "close_approach_date": "1997-10-22",
            "close_approach_date_full": "1997-Oct-22 20:47",
            "epoch_date_close_approach": 877553220000,
            "relative_velocity": {
                "kilometers_per_second": "17.3661083985",
                "kilometers_per_hour": "62517.9902347663",
                "miles_per_hour": "38846.247876708"
            },
            "miss_distance": {
                "astronomical": "0.4673270731",
                "lunar": "181.7902314359",
                "kilometers": "69911134.729094297",
                "miles": "43440764.7456314186"
            },
            "orbiting_body": "Earth"
        },
        {
            "close_approach_date": "2000-11-08",
            "close_approach_date_full": "2000-Nov-08 10:07",
            "epoch_date_close_approach": 973678020000,
            "relative_velocity": {
                "kilometers_per_second": "10.6396274807",
                "kilometers_per_hour": "38302.65893038",
                "miles_per_hour": "23799.7827114908"
            },
            "miss_distance": {
                "astronomical": "0.2287836109",
                "lunar": "88.9968246401",
                "kilometers": "34225540.881548783",
                "miles": "21266764.9507998854"
            },
            "orbiting_body": "Earth"
        },
        {
            "close_approach_date": "2003-12-04",
            "close_approach_date_full": "2003-Dec-04 15:32",
            "epoch_date_close_approach": 1070551920000,
            "relative_velocity": {
                "kilometers_per_second": "6.1449394851",
                "kilometers_per_hour": "22121.7821465028",
                "miles_per_hour": "13745.6151343089"
            },
            "miss_distance": {
                "astronomical": "0.0180997204",
                "lunar": "7.0407912356",
                "kilometers": "2707679.619435548",
                "miles": "1682474.0981566424"
            },
            "orbiting_body": "Earth"
        },
        {
            "close_approach_date": "2007-01-08",
            "close_approach_date_full": "2007-Jan-08 06:47",
            "epoch_date_close_approach": 1168238820000,
            "relative_velocity": {
                "kilometers_per_second": "9.7464636345",
                "kilometers_per_hour": "35087.2690841625",
                "miles_per_hour": "21801.8645039897"
            },
            "miss_distance": {
                "astronomical": "0.2319234814",
                "lunar": "90.2182342646",
                "kilometers": "34695258.820424618",
                "miles": "21558634.1438630084"
            },
            "orbiting_body": "Earth"
        },
        {
            "close_approach_date": "2010-01-29",
            "close_approach_date_full": "2010-Jan-29 22:44",
            "epoch_date_close_approach": 1264805040000,
            "relative_velocity": {
                "kilometers_per_second": "16.9825051005",
                "kilometers_per_hour": "61137.0183617204",
                "miles_per_hour": "37988.165659259"
            },
            "miss_distance": {
                "astronomical": "0.4744879749",
                "lunar": "184.5758222361",
                "kilometers": "70982390.385653463",
                "miles": "44106412.1441372694"
            },
            "orbiting_body": "Earth"
        }
    ],
    "orbital_data": {
        "orbit_id": "8",
        "orbit_determination_date": "2017-04-06 09:13:26",
        "first_observation_date": "2003-12-04",
        "last_observation_date": "2003-12-08",
        "data_arc_in_days": 4,
        "observations_used": 36,
        "orbit_uncertainty": "7",
        "minimum_orbit_intersection": ".0184618",
        "jupiter_tisserand_invariant": "4.900",
        "epoch_osculation": "2459000.5",
        "eccentricity": ".2438422660301796",
        "semi_major_axis": "1.321970444300317",
        "inclination": "9.646661326315197",
        "ascending_node_longitude": "70.58891968866379",
        "orbital_period": "555.1764624651352",
        "perihelion_distance": ".9996181755372044",
        "perihelion_argument": "12.38711922147185",
        "aphelion_distance": "1.64432271306343",
        "perihelion_time": "2459094.360269980064",
        "mean_anomaly": "299.1370141255852",
        "mean_motion": ".6484424761120124",
        "equinox": "J2000",
        "orbit_class": {
            "orbit_class_type": "APO",
            "orbit_class_description": "Near-Earth asteroid orbits which cross the Earth’s orbit similar to that of 1862 Apollo",
            "orbit_class_range": "a (semi-major axis) > 1.0 AU; q (perihelion) < 1.017 AU"
        }
    },
    "is_sentry_object": false
}